[{"OBJECT_NAME":"STARLINK-30473","OBJECT_ID":"2023-146C","EPOCH":"2026-03-09T17:33:01.341792","MEAN_MOTION":15.0347199,"ECCENTRICITY":0.00010354,"INCLINATION":43.0019,"RA_OF_ASC_NODE":312.9655,"ARG_OF_PERICENTER":249.7613,"MEAN_ANOMALY":110.3119,"EPHEMERIS_TYPE":0,"CLASSIFICATION_TYPE":"U","NORAD_CAT_ID":57893,"ELEMENT_SET_NO":999,"REV_AT_EPOCH":13707,"BSTAR":0.0084839685,"MEAN_MOTION_DOT":0.00119304,"MEAN_MOTION_DDOT":0},{"OBJECT_NAME":"IMS-1","OBJECT_ID":"2008-021D","EPOCH":"2026-03-09T22:27:26.707392","MEAN_MOTION":15.03517095,"ECCENTRICITY":0.00068607,"INCLINATION":97.9418,"RA_OF_ASC_NODE":52.6663,"ARG_OF_PERICENTER":75.5168,"MEAN_ANOMALY":284.6817,"EPHEMERIS_TYPE":0,"CLASSIFICATION_TYPE":"U","NORAD_CAT_ID":32786,"ELEMENT_SET_NO":999,"REV_AT_EPOCH":96828,"BSTAR":0.00046947389,"MEAN_MOTION_DOT":6.344e-5,"MEAN_MOTION_DDOT":0}]
